GLOBALSTAR M067 [+]     
1 32263U 07048A   23280.52192139 -.00000029  00000+0  50781-3 0  9997
2 32263  51.9744  46.1281 0001612 101.7932 336.5335 12.40632916732939
GLOBALSTAR M070 [+]     
1 32264U 07048B   23280.58995609 -.00000069  00000+0  19380-3 0  9991
2 32264  51.9743 212.9353 0000537 102.2084  68.8922 12.62279435735545
GLOBALSTAR M066 [+]     
1 32265U 07048C   23280.60633942 -.00000079  00000+0  14075-3 0  9991
2 32265  51.9672  74.9517 0001083  67.3764  11.1756 12.62265632737810
GLOBALSTAR M068 [-]     
1 32266U 07048D   23280.59756875 -.00000075  00000+0  16097-3 0  9993
2 32266  51.9910  27.8295 0000879 168.5644 296.2997 12.62767318739407
GLOBALSTAR M079 [+]     
1 37188U 10054A   23280.37410546 -.00000079  00000+0  14044-3 0  9994
2 37188  52.0030 223.5528 0000721  54.5098  98.0242 12.62268481598307
GLOBALSTAR M074 [+]     
1 37189U 10054B   23280.24019683 -.00000075  00000+0  16137-3 0  9999
2 37189  52.0005 223.3787 0000592  70.0201  74.0032 12.62270396598893
GLOBALSTAR M076 [+]     
1 37190U 10054C   23280.26779245 -.00000074  00000+0  16714-3 0  9990
2 37190  52.0020 223.4092 0001133  72.9561  76.6424 12.62261871598615
GLOBALSTAR M077 [+]     
1 37191U 10054D   23280.49709347 -.00000085  00000+0  10225-3 0  9995
2 37191  52.0065 179.3918 0000728  79.2686  91.4871 12.62267014599019
